{"type": "FeatureCollection", "features": [ {"type": "Feature", "properties": {"norad_id": 44622, "name": "GAOFEN-10R", "group": "resource", "lat": -6.874449248678264, "lon": 111.73391541156504, "alt_km": 628.7321863999696, "timestamp": "2025-12-11T05:00:25.968771+00:00", "meta": {"OBJECT_NAME": "GAOFEN-10R", "OBJECT_ID": "2019-066A", "EPOCH": "2025-12-10T23:18:32.976000", "MEAN_MOTION": 14.82782297, "ECCENTRICITY": 0.00079616, "INCLINATION": 98.0276, "RA_OF_ASC_NODE": 292.4705, "ARG_OF_PERICENTER": 46.9274, "MEAN_ANOMALY": 313.2604, "EPHEMERIS_TYPE": 0, "CLASSIFICATION_TYPE": "U", "NORAD_CAT_ID": 44622, "ELEMENT_SET_NO": 999, "REV_AT_EPOCH": 33448, "BSTAR": 0.00032074057, "MEAN_MOTION_DOT": 2.54e-05, "MEAN_MOTION_DDOT": 0}, "tle": {"line1": "1 44622U 19066A   25344.97121500  .00002540  00000+0  32074-3 0  9992", "line2": "2 44622  98.0276 292.4705 0007961  46.9274 313.2604 14.82782297334487"}}, "geometry": {"type": "Point", "coordinates": [111.73391541156504, -6.874449248678264]}}, {"type": "Feature", "properties": {"norad_id": 44804, "name": "CARTOSAT-3", "group": "resource", "lat": 29.76436114757035, "lon": -130.89191405744842, "alt_km": 501.3106156091917, "timestamp": "2025-12-11T05:00:25.968781+00:00", "meta": {"OBJECT_NAME": "CARTOSAT-3", "OBJECT_ID": "2019-081A", "EPOCH": "2025-12-10T23:36:33.134112", "MEAN_MOTION": 15.19346404, "ECCENTRICITY": 0.00140149, "INCLINATION": 97.4579, "RA_OF_ASC_NODE": 44.5897, "ARG_OF_PERICENTER": 92.3425, "MEAN_ANOMALY": 267.9414, "EPHEMERIS_TYPE": 0, "CLASSIFICATION_TYPE": "U", "NORAD_CAT_ID": 44804, "ELEMENT_SET_NO": 999, "REV_AT_EPOCH": 33489, "BSTAR": 0.00032422232, "MEAN_MOTION_DOT": 6.802e-05, "MEAN_MOTION_DDOT": 0}, "tle": {"line1": "1 44804U 19081A   25344.98371683  .00006802  00000+0  32422-3 0  9993", "line2": "2 44804  97.4579  44.5897 0014014  92.3425 267.9414 15.19346404334892"}}, "geometry": {"type": "Point", "coordinates": [-130.89191405744842, 29.76436114757035]}}, {"type": "Feature", "properties": {"norad_id": 44819, "name": "GAOFEN-12 01", "group": "resource", "lat": 72.6154678969922, "lon": -162.4592063929723, "alt_km": 620.9387605772754, "timestamp": "2025-12-11T05:00:25.968792+00:00", "meta": {"OBJECT_NAME": "GAOFEN-12 01", "OBJECT_ID": "2019-082A", "EPOCH": "2025-12-10T23:39:59.242176", "MEAN_MOTION": 14.8065399, "ECCENTRICITY": 0.00012352, "INCLINATION": 97.8127, "RA_OF_ASC_NODE": 351.3131, "ARG_OF_PERICENTER": 245.2166, "MEAN_ANOMALY": 114.8918, "EPHEMERIS_TYPE": 0, "CLASSIFICATION_TYPE": "U", "NORAD_CAT_ID": 44819, "ELEMENT_SET_NO": 999, "REV_AT_EPOCH": 32624, "BSTAR": 0.00011037527, "MEAN_MOTION_DOT": 7.97e-06, "MEAN_MOTION_DDOT": 0}, "tle": {"line1": "1 44819U 19082A   25344.98610234  .00000797  00000+0  11038-3 0  9995", "line2": "2 44819  97.8127 351.3131 0001235 245.2166 114.8918 14.80653990326240"}}, "geometry": {"type": "Point", "coordinates": [-162.4592063929723, 72.6154678969922]}}, {"type": "Feature", "properties": {"norad_id": 44873, "name": "CSG-1", "group": "resource", "lat": -28.02639867304709, "lon": -17.672576338533062, "alt_km": 628.9277771879661, "timestamp": "2025-12-11T05:00:25.968802+00:00", "meta": {"OBJECT_NAME": "CSG-1", "OBJECT_ID": "2019-092A", "EPOCH": "2025-12-10T23:12:36.307296", "MEAN_MOTION": 14.82160254, "ECCENTRICITY": 0.00014449, "INCLINATION": 97.881, "RA_OF_ASC_NODE": 166.318, "ARG_OF_PERICENTER": 84.8129, "MEAN_ANOMALY": 275.3249, "EPHEMERIS_TYPE": 0, "CLASSIFICATION_TYPE": "U", "NORAD_CAT_ID": 44873, "ELEMENT_SET_NO": 999, "REV_AT_EPOCH": 32359, "BSTAR": 0.00013115783, "MEAN_MOTION_DOT": 9.92e-06, "MEAN_MOTION_DDOT": 0}, "tle": {"line1": "1 44873U 19092A   25344.96708689  .00000992  00000+0  13116-3 0  9992", "line2": "2 44873  97.8810 166.3180 0001444  84.8129 275.3249 14.82160254323598"}}, "geometry": {"type": "Point", "coordinates": [-17.672576338533062, -28.02639867304709]}}, {"type": "Feature", "properties": {"norad_id": 46277, "name": "NEMO-HD", "group": "resource", "lat": 46.47539019275895, "lon": 36.65385594807842, "alt_km": 439.9632865255908, "timestamp": "2025-12-11T05:00:25.968812+00:00", "meta": {"OBJECT_NAME": "NEMO-HD", "OBJECT_ID": "2020-061F", "EPOCH": "2025-12-10T22:34:02.421984", "MEAN_MOTION": 15.40264693, "ECCENTRICITY": 0.00020017, "INCLINATION": 97.2211, "RA_OF_ASC_NODE": 44.0607, "ARG_OF_PERICENTER": 58.331, "MEAN_ANOMALY": 301.8132, "EPHEMERIS_TYPE": 0, "CLASSIFICATION_TYPE": "U", "NORAD_CAT_ID": 46277, "ELEMENT_SET_NO": 999, "REV_AT_EPOCH": 29296, "BSTAR": 0.00038816901, "MEAN_MOTION_DOT": 0.00015554, "MEAN_MOTION_DDOT": 0}, "tle": {"line1": "1 46277U 20061F   25344.94030581  .00015554  00000+0  38817-3 0  9992", "line2": "2 46277  97.2211  44.0607 0002001  58.3310 301.8132 15.40264693292960"}}, "geometry": {"type": "Point", "coordinates": [36.65385594807842, 46.47539019275895]}}, {"type": "Feature", "properties": {"norad_id": 46984, "name": "SENTINEL-6A", "group": "resource", "lat": -51.83893414256147, "lon": 19.950182622624343, "alt_km": 1338.5764200357899, "timestamp": "2025-12-11T05:00:25.968822+00:00", "meta": {"OBJECT_NAME": "SENTINEL-6A", "OBJECT_ID": "2020-086A", "EPOCH": "2025-12-10T18:23:32.214912", "MEAN_MOTION": 12.80930554, "ECCENTRICITY": 0.0007731, "INCLINATION": 66.039, "RA_OF_ASC_NODE": 166.4071, "ARG_OF_PERICENTER": 269.1652, "MEAN_ANOMALY": 90.8477, "EPHEMERIS_TYPE": 0, "CLASSIFICATION_TYPE": "U", "NORAD_CAT_ID": 46984, "ELEMENT_SET_NO": 999, "REV_AT_EPOCH": 23619, "BSTAR": 9.1963369e-05, "MEAN_MOTION_DOT": -4e-07, "MEAN_MOTION_DDOT": 0}, "tle": {"line1": "1 46984U 20086A   25344.76634508 -.00000040  00000+0  91963-4 0  9990", "line2": "2 46984  66.0390 166.4071 0007731 269.1652  90.8477 12.80930554236194"}}, "geometry": {"type": "Point", "coordinates": [19.950182622624343, -51.83893414256147]}}, {"type": "Feature", "properties": {"norad_id": 48079, "name": "GAOFEN-12 02", "group": "resource", "lat": 62.132218969677645, "lon": 174.6175519217892, "alt_km": 618.7634920017272, "timestamp": "2025-12-11T05:00:25.968832+00:00", "meta": {"OBJECT_NAME": "GAOFEN-12 02", "OBJECT_ID": "2021-026A", "EPOCH": "2025-12-10T23:36:59.176800", "MEAN_MOTION": 14.80671669, "ECCENTRICITY": 0.00035039, "INCLINATION": 97.9851, "RA_OF_ASC_NODE": 338.9989, "ARG_OF_PERICENTER": 104.6503, "MEAN_ANOMALY": 255.5098, "EPHEMERIS_TYPE": 0, "CLASSIFICATION_TYPE": "U", "NORAD_CAT_ID": 48079, "ELEMENT_SET_NO": 999, "REV_AT_EPOCH": 25391, "BSTAR": 0.00011560283, "MEAN_MOTION_DOT": 8.36e-06, "MEAN_MOTION_DDOT": 0}, "tle": {"line1": "1 48079U 21026A   25344.98401825  .00000836  00000+0  11560-3 0  9996", "line2": "2 48079  97.9851 338.9989 0003503 104.6503 255.5098 14.80671669253910"}}, "geometry": {"type": "Point", "coordinates": [174.6175519217892, 62.132218969677645]}}, {"type": "Feature", "properties": {"norad_id": 48268, "name": "PLEIADES NEO 3", "group": "resource", "lat": 1.6254182001574904, "lon": -122.10322451180376, "alt_km": 626.818496377452, "timestamp": "2025-12-11T05:00:25.968842+00:00", "meta": {"OBJECT_NAME": "PLEIADES NEO 3", "OBJECT_ID": "2021-034A", "EPOCH": "2025-12-10T23:20:35.230272", "MEAN_MOTION": 14.81676055, "ECCENTRICITY": 0.00013729, "INCLINATION": 97.8943, "RA_OF_ASC_NODE": 57.4386, "ARG_OF_PERICENTER": 90.5618, "MEAN_ANOMALY": 269.5752, "EPHEMERIS_TYPE": 0, "CLASSIFICATION_TYPE": "U", "NORAD_CAT_ID": 48268, "ELEMENT_SET_NO": 999, "REV_AT_EPOCH": 24978, "BSTAR": 0.00026537611, "MEAN_MOTION_DOT": 2.037e-05, "MEAN_MOTION_DDOT": 0}, "tle": {"line1": "1 48268U 21034A   25344.97262998  .00002037  00000+0  26538-3 0  9996", "line2": "2 48268  97.8943  57.4386 0001372  90.5618 269.5752 14.81676055249784"}}, "geometry": {"type": "Point", "coordinates": [-122.10322451180376, 1.6254182001574904]}}, {"type": "Feature", "properties": {"norad_id": 49070, "name": "PLEIADES NEO 4", "group": "resource", "lat": -1.777599897657622, "lon": 57.91406958966416, "alt_km": 627.1989424995727, "timestamp": "2025-12-11T05:00:25.968852+00:00", "meta": {"OBJECT_NAME": "PLEIADES NEO 4", "OBJECT_ID": "2021-073E", "EPOCH": "2025-12-09T14:07:00.443712", "MEAN_MOTION": 14.81679595, "ECCENTRICITY": 0.0001363, "INCLINATION": 97.8947, "RA_OF_ASC_NODE": 56.0703, "ARG_OF_PERICENTER": 89.0853, "MEAN_ANOMALY": 271.0516, "EPHEMERIS_TYPE": 0, "CLASSIFICATION_TYPE": "U", "NORAD_CAT_ID": 49070, "ELEMENT_SET_NO": 999, "REV_AT_EPOCH": 23329, "BSTAR": 7.8728e-05, "MEAN_MOTION_DOT": 5.68e-06, "MEAN_MOTION_DDOT": 0}, "tle": {"line1": "1 49070U 21073E   25343.58819958  .00000568  00000+0  78728-4 0  9997", "line2": "2 49070  97.8947  56.0703 0001363  89.0853 271.0516 14.81679595233299"}}, "geometry": {"type": "Point", "coordinates": [57.91406958966416, -1.777599897657622]}}, {"type": "Feature", "properties": {"norad_id": 49260, "name": "LANDSAT 9", "group": "resource", "lat": 29.311664022925005, "lon": -122.00876436570312, "alt_km": 700.5920700362722, "timestamp": "2025-12-11T05:00:25.968862+00:00", "meta": {"OBJECT_NAME": "LANDSAT 9", "OBJECT_ID": "2021-088A", "EPOCH": "2025-12-10T21:43:40.110240", "MEAN_MOTION": 14.57127299, "ECCENTRICITY": 0.00011245, "INCLINATION": 98.2097, "RA_OF_ASC_NODE": 53.0431, "ARG_OF_PERICENTER": 95.249, "MEAN_ANOMALY": 264.8837, "EPHEMERIS_TYPE": 0, "CLASSIFICATION_TYPE": "U", "NORAD_CAT_ID": 49260, "ELEMENT_SET_NO": 999, "REV_AT_EPOCH": 22358, "BSTAR": 0.00016388985, "MEAN_MOTION_DOT": 6.93e-06, "MEAN_MOTION_DDOT": 0}, "tle": {"line1": "1 49260U 21088A   25344.90532535  .00000693  00000+0  16389-3 0  9997", "line2": "2 49260  98.2097  53.0431 0001124  95.2490 264.8837 14.57127299223586"}}, "geometry": {"type": "Point", "coordinates": [-122.00876436570312, 29.311664022925005]}}]}